[{"OBJECT_NAME":"ONEWEB-0705","OBJECT_ID":"2024-188S","EPOCH":"2025-08-25T13:42:04.398336","MEAN_MOTION":13.10376437,"ECCENTRICITY":0.00018104,"INCLINATION":87.8763,"RA_OF_ASC_NODE":95.2028,"ARG_OF_PERICENTER":122.4444,"MEAN_ANOMALY":237.6858,"EPHEMERIS_TYPE":0,"CLASSIFICATION_TYPE":"U","NORAD_CAT_ID":61610,"ELEMENT_SET_NO":999,"REV_AT_EPOCH":3674,"BSTAR":-0.0011250728,"MEAN_MOTION_DOT":-3.8e-6,"MEAN_MOTION_DDOT":0},{"OBJECT_NAME":"ONEWEB-0706","OBJECT_ID":"2024-188T","EPOCH":"2025-08-25T13:20:33.846720","MEAN_MOTION":13.10368955,"ECCENTRICITY":0.00012166,"INCLINATION":87.8761,"RA_OF_ASC_NODE":95.2335,"ARG_OF_PERICENTER":102.381,"MEAN_ANOMALY":257.7454,"EPHEMERIS_TYPE":0,"CLASSIFICATION_TYPE":"U","NORAD_CAT_ID":61611,"ELEMENT_SET_NO":999,"REV_AT_EPOCH":4466,"BSTAR":-0.0017452649,"MEAN_MOTION_DOT":-5.96e-6,"MEAN_MOTION_DDOT":0},{"OBJECT_NAME":"ONEWEB-0707","OBJECT_ID":"2024-188U","EPOCH":"2025-08-25T13:30:05.859648","MEAN_MOTION":13.10371859,"ECCENTRICITY":0.00011874,"INCLINATION":87.8768,"RA_OF_ASC_NODE":95.1983,"ARG_OF_PERICENTER":97.3706,"MEAN_ANOMALY":262.7556,"EPHEMERIS_TYPE":0,"CLASSIFICATION_TYPE":"U","NORAD_CAT_ID":61612,"ELEMENT_SET_NO":999,"REV_AT_EPOCH":4460,"BSTAR":-0.0017086579,"MEAN_MOTION_DOT":-5.84e-6,"MEAN_MOTION_DDOT":0},{"OBJECT_NAME":"ONEWEB-0708","OBJECT_ID":"2024-188V","EPOCH":"2025-08-25T13:56:26.208960","MEAN_MOTION":13.10377068,"ECCENTRICITY":0.00015469,"INCLINATION":87.8788,"RA_OF_ASC_NODE":95.2314,"ARG_OF_PERICENTER":109.676,"MEAN_ANOMALY":250.4535,"EPHEMERIS_TYPE":0,"CLASSIFICATION_TYPE":"U","NORAD_CAT_ID":61613,"ELEMENT_SET_NO":999,"REV_AT_EPOCH":4458,"BSTAR":0.00085491988,"MEAN_MOTION_DOT":3.11e-6,"MEAN_MOTION_DDOT":0}]
