ONEWEB-0705             
1 61610U 24188S   25237.57088424 -.00000380  00000+0 -11251-2 0  9998
2 61610  87.8763  95.2028 0001810 122.4444 237.6858 13.10376437 36746
ONEWEB-0706             
1 61611U 24188T   25237.55594730 -.00000596  00000+0 -17453-2 0  9998
2 61611  87.8761  95.2335 0001216 102.3810 257.7454 13.10368955 44661
ONEWEB-0707             
1 61612U 24188U   25237.56256782 -.00000584  00000+0 -17087-2 0  9992
2 61612  87.8768  95.1983 0001187  97.3706 262.7556 13.10371859 44601
ONEWEB-0708             
1 61613U 24188V   25237.58085890  .00000311  00000+0  85492-3 0  9997
2 61613  87.8788  95.2314 0001546 109.6760 250.4535 13.10377068 44585
